[{"OBJECT_NAME":"STARLINK-34739","OBJECT_ID":"2025-165L","EPOCH":"2026-03-09T18:01:24.829248","MEAN_MOTION":15.05645642,"ECCENTRICITY":0.00011746,"INCLINATION":97.602,"RA_OF_ASC_NODE":147.35,"ARG_OF_PERICENTER":27.7702,"MEAN_ANOMALY":332.3587,"EPHEMERIS_TYPE":0,"CLASSIFICATION_TYPE":"U","NORAD_CAT_ID":65066,"ELEMENT_SET_NO":999,"REV_AT_EPOCH":3480,"BSTAR":0.0004926159,"MEAN_MOTION_DOT":7.053e-5,"MEAN_MOTION_DDOT":0},{"OBJECT_NAME":"PEGASUS DEB","OBJECT_ID":"1994-029AEZ","EPOCH":"2026-03-07T11:19:28.799040","MEAN_MOTION":14.72051152,"ECCENTRICITY":0.01604515,"INCLINATION":81.6595,"RA_OF_ASC_NODE":342.3991,"ARG_OF_PERICENTER":98.387,"MEAN_ANOMALY":263.5562,"EPHEMERIS_TYPE":0,"CLASSIFICATION_TYPE":"U","NORAD_CAT_ID":39314,"ELEMENT_SET_NO":999,"REV_AT_EPOCH":64575,"BSTAR":0.00096584038,"MEAN_MOTION_DOT":7.465e-5,"MEAN_MOTION_DDOT":0}]
